CCSDS_OMM_VERS = 2.0
CREATION_DATE  = 
ORIGINATOR     = 

OBJECT_NAME    = AQUA
OBJECT_ID      = 2002-022A
CENTER_NAME    = EARTH
REF_FRAME      = TEME
TIME_SYSTEM    = UTC
MEAN_ELEMENT_THEORY = SGP/SGP4

EPOCH          = 2026-03-28T21:48:32.643360
MEAN_MOTION    = 14.62020005
ECCENTRICITY   = .0001137
INCLINATION    = 98.4206
RA_OF_ASC_NODE = 55.6284
ARG_OF_PERICENTER = 117.8140
MEAN_ANOMALY   = 264.0345

EPHEMERIS_TYPE = 0
CLASSIFICATION_TYPE = U
NORAD_CAT_ID   = 27424
ELEMENT_SET_NO = 999
REV_AT_EPOCH   = 27154
BSTAR          = .22442E-3
MEAN_MOTION_DOT = .1076E-4
MEAN_MOTION_DDOT = 0

CCSDS_OMM_VERS = 2.0
CREATION_DATE  = 
ORIGINATOR     = 

OBJECT_NAME    = CZ-4B R/B
OBJECT_ID      = 2002-024C
CENTER_NAME    = EARTH
REF_FRAME      = TEME
TIME_SYSTEM    = UTC
MEAN_ELEMENT_THEORY = SGP/SGP4

EPOCH          = 2026-03-28T18:08:03.496128
MEAN_MOTION    = 14.14550982
ECCENTRICITY   = .004952
INCLINATION    = 98.8798
RA_OF_ASC_NODE = 141.0628
ARG_OF_PERICENTER = 329.9090
MEAN_ANOMALY   = 138.7605

EPHEMERIS_TYPE = 0
CLASSIFICATION_TYPE = U
NORAD_CAT_ID   = 27432
ELEMENT_SET_NO = 999
REV_AT_EPOCH   = 23193
BSTAR          = .42127E-4
MEAN_MOTION_DOT = .37E-6
MEAN_MOTION_DDOT = 0

CCSDS_OMM_VERS = 2.0
CREATION_DATE  = 
ORIGINATOR     = 

OBJECT_NAME    = MIDORI II (ADEOS-II)
OBJECT_ID      = 2002-056A
CENTER_NAME    = EARTH
REF_FRAME      = TEME
TIME_SYSTEM    = UTC
MEAN_ELEMENT_THEORY = SGP/SGP4

EPOCH          = 2026-03-28T20:16:39.495648
MEAN_MOTION    = 14.29299293
ECCENTRICITY   = .0000736
INCLINATION    = 98.7801
RA_OF_ASC_NODE = 46.4588
ARG_OF_PERICENTER = 18.7924
MEAN_ANOMALY   = 341.3285

EPHEMERIS_TYPE = 0
CLASSIFICATION_TYPE = U
NORAD_CAT_ID   = 27597
ELEMENT_SET_NO = 999
REV_AT_EPOCH   = 21303
BSTAR          = .15146E-3
MEAN_MOTION_DOT = .34E-5
MEAN_MOTION_DDOT = 0

CCSDS_OMM_VERS = 2.0
CREATION_DATE  = 
ORIGINATOR     = 

OBJECT_NAME    = H-2A R/B
OBJECT_ID      = 2002-056E
CENTER_NAME    = EARTH
REF_FRAME      = TEME
TIME_SYSTEM    = UTC
MEAN_ELEMENT_THEORY = SGP/SGP4

EPOCH          = 2026-03-28T21:20:17.335392
MEAN_MOTION    = 14.33773303
ECCENTRICITY   = .0071365
INCLINATION    = 98.3234
RA_OF_ASC_NODE = 47.5275
ARG_OF_PERICENTER = 104.1133
MEAN_ANOMALY   = 267.6834

EPHEMERIS_TYPE = 0
CLASSIFICATION_TYPE = U
NORAD_CAT_ID   = 27601
ELEMENT_SET_NO = 999
REV_AT_EPOCH   = 21686
BSTAR          = .12554E-3
MEAN_MOTION_DOT = .318E-5
MEAN_MOTION_DDOT = 0

CCSDS_OMM_VERS = 2.0
CREATION_DATE  = 
ORIGINATOR     = 

OBJECT_NAME    = CZ-4B R/B
OBJECT_ID      = 2003-049C
CENTER_NAME    = EARTH
REF_FRAME      = TEME
TIME_SYSTEM    = UTC
MEAN_ELEMENT_THEORY = SGP/SGP4

EPOCH          = 2026-03-28T20:16:25.441824
MEAN_MOTION    = 14.55037075
ECCENTRICITY   = .004828
INCLINATION    = 98.6892
RA_OF_ASC_NODE = 83.5036
ARG_OF_PERICENTER = 171.9008
MEAN_ANOMALY   = 188.2978

EPHEMERIS_TYPE = 0
CLASSIFICATION_TYPE = U
NORAD_CAT_ID   = 28059
ELEMENT_SET_NO = 999
REV_AT_EPOCH   = 18938
BSTAR          = .10101E-3
MEAN_MOTION_DOT = .39E-5
MEAN_MOTION_DDOT = 0

CCSDS_OMM_VERS = 2.0
CREATION_DATE  = 
ORIGINATOR     = 

OBJECT_NAME    = CZ-2C R/B
OBJECT_ID      = 2004-012C
CENTER_NAME    = EARTH
REF_FRAME      = TEME
TIME_SYSTEM    = UTC
MEAN_ELEMENT_THEORY = SGP/SGP4

EPOCH          = 2026-03-28T17:15:42.241824
MEAN_MOTION    = 15.66824379
ECCENTRICITY   = .0013266
INCLINATION    = 97.7187
RA_OF_ASC_NODE = 154.8442
ARG_OF_PERICENTER = 233.7662
MEAN_ANOMALY   = 126.2372

EPHEMERIS_TYPE = 0
CLASSIFICATION_TYPE = U
NORAD_CAT_ID   = 28222
ELEMENT_SET_NO = 999
REV_AT_EPOCH   = 20725
BSTAR          = .67816E-3
MEAN_MOTION_DOT = .72206E-3
MEAN_MOTION_DDOT = 0

CCSDS_OMM_VERS = 2.0
CREATION_DATE  = 
ORIGINATOR     = 

OBJECT_NAME    = SL-16 R/B
OBJECT_ID      = 2004-021B
CENTER_NAME    = EARTH
REF_FRAME      = TEME
TIME_SYSTEM    = UTC
MEAN_ELEMENT_THEORY = SGP/SGP4

EPOCH          = 2026-03-28T16:34:50.716128
MEAN_MOTION    = 14.14594827
ECCENTRICITY   = .0004965
INCLINATION    = 71.0008
RA_OF_ASC_NODE = 192.6176
ARG_OF_PERICENTER = 346.5559
MEAN_ANOMALY   = 13.5430

EPHEMERIS_TYPE = 0
CLASSIFICATION_TYPE = U
NORAD_CAT_ID   = 28353
ELEMENT_SET_NO = 999
REV_AT_EPOCH   = 12552
BSTAR          = .12254E-3
MEAN_MOTION_DOT = .188E-5
MEAN_MOTION_DDOT = 0

CCSDS_OMM_VERS = 2.0
CREATION_DATE  = 
ORIGINATOR     = 

OBJECT_NAME    = CZ-4B R/B
OBJECT_ID      = 2004-035C
CENTER_NAME    = EARTH
REF_FRAME      = TEME
TIME_SYSTEM    = UTC
MEAN_ELEMENT_THEORY = SGP/SGP4

EPOCH          = 2026-03-28T19:40:29.665056
MEAN_MOTION    = 15.29390298
ECCENTRICITY   = .0030017
INCLINATION    = 97.3471
RA_OF_ASC_NODE = 121.8343
ARG_OF_PERICENTER = 259.9327
MEAN_ANOMALY   = 99.8526

EPHEMERIS_TYPE = 0
CLASSIFICATION_TYPE = U
NORAD_CAT_ID   = 28415
ELEMENT_SET_NO = 999
REV_AT_EPOCH   = 18283
BSTAR          = .32288E-3
MEAN_MOTION_DOT = .9252E-4
MEAN_MOTION_DDOT = 0

CCSDS_OMM_VERS = 2.0
CREATION_DATE  = 
ORIGINATOR     = 

OBJECT_NAME    = CZ-2C R/B
OBJECT_ID      = 2004-046B
CENTER_NAME    = EARTH
REF_FRAME      = TEME
TIME_SYSTEM    = UTC
MEAN_ELEMENT_THEORY = SGP/SGP4

EPOCH          = 2026-03-28T18:26:04.908768
MEAN_MOTION    = 14.26998763
ECCENTRICITY   = .0140588
INCLINATION    = 98.1977
RA_OF_ASC_NODE = 1.5635
ARG_OF_PERICENTER = 98.3846
MEAN_ANOMALY   = 263.3301

EPHEMERIS_TYPE = 0
CLASSIFICATION_TYPE = U
NORAD_CAT_ID   = 28480
ELEMENT_SET_NO = 999
REV_AT_EPOCH   = 11122
BSTAR          = .66765E-4
MEAN_MOTION_DOT = .141E-5
MEAN_MOTION_DDOT = 0

CCSDS_OMM_VERS = 2.0
CREATION_DATE  = 
ORIGINATOR     = 

OBJECT_NAME    = ARIANE 5 R/B
OBJECT_ID      = 2004-049H
CENTER_NAME    = EARTH
REF_FRAME      = TEME
TIME_SYSTEM    = UTC
MEAN_ELEMENT_THEORY = SGP/SGP4

EPOCH          = 2026-03-28T16:44:40.020288
MEAN_MOTION    = 14.85299404
ECCENTRICITY   = .008293
INCLINATION    = 98.2656
RA_OF_ASC_NODE = 256.8701
ARG_OF_PERICENTER = 289.7656
MEAN_ANOMALY   = 69.4629

EPHEMERIS_TYPE = 0
CLASSIFICATION_TYPE = U
NORAD_CAT_ID   = 28499
ELEMENT_SET_NO = 999
REV_AT_EPOCH   = 14861
BSTAR          = .10259E-3
MEAN_MOTION_DOT = .871E-5
MEAN_MOTION_DDOT = 0

CCSDS_OMM_VERS = 2.0
CREATION_DATE  = 
ORIGINATOR     = 

OBJECT_NAME    = CZ-2D R/B
OBJECT_ID      = 2005-024B
CENTER_NAME    = EARTH
REF_FRAME      = TEME
TIME_SYSTEM    = UTC
MEAN_ELEMENT_THEORY = SGP/SGP4

EPOCH          = 2026-03-28T11:48:18.299808
MEAN_MOTION    = 15.61848764
ECCENTRICITY   = .00024376
INCLINATION    = 97.3581
RA_OF_ASC_NODE = 103.3508
ARG_OF_PERICENTER = 340.8411
MEAN_ANOMALY   = 19.2754

EPHEMERIS_TYPE = 0
CLASSIFICATION_TYPE = U
NORAD_CAT_ID   = 28738
ELEMENT_SET_NO = 999
REV_AT_EPOCH   = 14271
BSTAR          = .57362101E-3
MEAN_MOTION_DOT = .4984E-3
MEAN_MOTION_DDOT = 0

CCSDS_OMM_VERS = 2.0
CREATION_DATE  = 
ORIGINATOR     = 

OBJECT_NAME    = ALOS (DAICHI)
OBJECT_ID      = 2006-002A
CENTER_NAME    = EARTH
REF_FRAME      = TEME
TIME_SYSTEM    = UTC
MEAN_ELEMENT_THEORY = SGP/SGP4

EPOCH          = 2026-03-28T20:04:22.387872
MEAN_MOTION    = 14.69867137
ECCENTRICITY   = .0000867
INCLINATION    = 98.1247
RA_OF_ASC_NODE = 43.7003
ARG_OF_PERICENTER = 107.0313
MEAN_ANOMALY   = 253.0988

EPHEMERIS_TYPE = 0
CLASSIFICATION_TYPE = U
NORAD_CAT_ID   = 28931
ELEMENT_SET_NO = 999
REV_AT_EPOCH   = 7629
BSTAR          = .24514E-3
MEAN_MOTION_DOT = .1416E-4
MEAN_MOTION_DDOT = 0

